[{"OBJECT_NAME":"STARLINK-3597","OBJECT_ID":"2022-022AY","EPOCH":"2026-03-09T04:41:57.200352","MEAN_MOTION":15.08844101,"ECCENTRICITY":0.00014957,"INCLINATION":53.2196,"RA_OF_ASC_NODE":1.3366,"ARG_OF_PERICENTER":92.6992,"MEAN_ANOMALY":267.4172,"EPHEMERIS_TYPE":0,"CLASSIFICATION_TYPE":"U","NORAD_CAT_ID":51898,"ELEMENT_SET_NO":999,"REV_AT_EPOCH":22322,"BSTAR":-7.190575e-6,"MEAN_MOTION_DOT":-4.02e-6,"MEAN_MOTION_DDOT":0},{"OBJECT_NAME":"RAISE-4","OBJECT_ID":"2025-297B","EPOCH":"2026-03-09T23:25:57.718272","MEAN_MOTION":15.08174958,"ECCENTRICITY":0.00127133,"INCLINATION":97.4953,"RA_OF_ASC_NODE":219.2703,"ARG_OF_PERICENTER":22.7159,"MEAN_ANOMALY":337.4629,"EPHEMERIS_TYPE":0,"CLASSIFICATION_TYPE":"U","NORAD_CAT_ID":67073,"ELEMENT_SET_NO":999,"REV_AT_EPOCH":1293,"BSTAR":0.00037087145,"MEAN_MOTION_DOT":5.682e-5,"MEAN_MOTION_DDOT":0}]
